72 22
Starlink Double 3038
1 03039U 00000ABC 22001.00000000  .00000000  00000-0  00000+0 0    02
2 03039  53.2000 330.0000 0000001   0.0000  32.7273 15.08756705    02
Starlink Double 3039
1 03040U 00000ABC 22001.00000000  .00000000  00000-0  00000+0 0    04
2 03040  53.2000 330.0000 0000001   0.0000  49.0909 15.08756705    01
Starlink Double 3040
1 03041U 00000ABC 22001.00000000  .00000000  00000-0  00000+0 0    05
2 03041  53.2000 330.0000 0000001   0.0000  65.4545 15.08756705    00
Starlink Double 3041
1 03042U 00000ABC 22001.00000000  .00000000  00000-0  00000+0 0    06
2 03042  53.2000 330.0000 0000001   0.0000  81.8182 15.08756705    00
Starlink Double 3042
1 03043U 00000ABC 22001.00000000  .00000000  00000-0  00000+0 0    07
2 03043  53.2000 330.0000 0000001   0.0000  98.1818 15.08756705    08
Starlink Double 3043
1 03044U 00000ABC 22001.00000000  .00000000  00000-0  00000+0 0    08
2 03044  53.2000 330.0000 0000001   0.0000 114.5455 15.08756705    09
Starlink Double 3044
1 03045U 00000ABC 22001.00000000  .00000000  00000-0  00000+0 0    09
2 03045  53.2000 330.0000 0000001   0.0000 130.9091 15.08756705    08
Starlink Double 3045
1 03046U 00000ABC 22001.00000000  .00000000  00000-0  00000+0 0    00
2 03046  53.2000 330.0000 0000001   0.0000 147.2727 15.08756705    06
Starlink Double 3046
1 03047U 00000ABC 22001.00000000  .00000000  00000-0  00000+0 0    01
2 03047  53.2000 330.0000 0000001   0.0000 163.6364 15.08756705    06
Starlink Double 3047
1 03048U 00000ABC 22001.00000000  .00000000  00000-0  00000+0 0    02
2 03048  53.2000 330.0000 0000001   0.0000 180.0000 15.08756705    07
Starlink Double 3048
1 03049U 00000ABC 22001.00000000  .00000000  00000-0  00000+0 0    03
2 03049  53.2000 330.0000 0000001   0.0000 196.3636 15.08756705    03
Starlink Double 3049
1 03050U 00000ABC 22001.00000000  .00000000  00000-0  00000+0 0    05
2 03050  53.2000 330.0000 0000001   0.0000 212.7273 15.08756705    05
Starlink Double 3050
1 03051U 00000ABC 22001.00000000  .00000000  00000-0  00000+0 0    06
2 03051  53.2000 330.0000 0000001   0.0000 229.0909 15.08756705    03
Starlink Double 3051
1 03052U 00000ABC 22001.00000000  .00000000  00000-0  00000+0 0    07
2 03052  53.2000 330.0000 0000001   0.0000 245.4545 15.08756705    02
Starlink Double 3052
1 03053U 00000ABC 22001.00000000  .00000000  00000-0  00000+0 0    08
2 03053  53.2000 330.0000 0000001   0.0000 261.8182 15.08756705    02
Starlink Double 3053
1 03054U 00000ABC 22001.00000000  .00000000  00000-0  00000+0 0    09
2 03054  53.2000 330.0000 0000001   0.0000 278.1818 15.08756705    00
Starlink Double 3054
1 03055U 00000ABC 22001.00000000  .00000000  00000-0  00000+0 0    00
2 03055  53.2000 330.0000 0000001   0.0000 294.5455 15.08756705    00
Starlink Double 3055
1 03056U 00000ABC 22001.00000000  .00000000  00000-0  00000+0 0    01
2 03056  53.2000 330.0000 0000001   0.0000 310.9091 15.08756705    00
Starlink Double 3056
1 03057U 00000ABC 22001.00000000  .00000000  00000-0  00000+0 0    02
2 03057  53.2000 330.0000 0000001   0.0000 327.2727 15.08756705    08
Starlink Double 3057
1 03058U 00000ABC 22001.00000000  .00000000  00000-0  00000+0 0    03
2 03058  53.2000 330.0000 0000001   0.0000 343.6364 15.08756705    08
Starlink Double 3058
1 03059U 00000ABC 22001.00000000  .00000000  00000-0  00000+0 0    04
2 03059  53.2000 335.0000 0000001   0.0000   8.1818 15.08756705    01
Starlink Double 3059
1 03060U 00000ABC 22001.00000000  .00000000  00000-0  00000+0 0    06
2 03060  53.2000 335.0000 0000001   0.0000  24.5455 15.08756705    02
Starlink Double 3060
1 03061U 00000ABC 22001.00000000  .00000000  00000-0  00000+0 0    07
2 03061  53.2000 335.0000 0000001   0.0000  40.9091 15.08756705    01
Starlink Double 3061
1 03062U 00000ABC 22001.00000000  .00000000  00000-0  00000+0 0    08
2 03062  53.2000 335.0000 0000001   0.0000  57.2727 15.08756705    09
Starlink Double 3062
1 03063U 00000ABC 22001.00000000  .00000000  00000-0  00000+0 0    09
2 03063  53.2000 335.0000 0000001   0.0000  73.6364 15.08756705    09
Starlink Double 3063
1 03064U 00000ABC 22001.00000000  .00000000  00000-0  00000+0 0    00
2 03064  53.2000 335.0000 0000001   0.0000  90.0000 15.08756705    00
Starlink Double 3064
1 03065U 00000ABC 22001.00000000  .00000000  00000-0  00000+0 0    01
2 03065  53.2000 335.0000 0000001   0.0000 106.3636 15.08756705    07
Starlink Double 3065
1 03066U 00000ABC 22001.00000000  .00000000  00000-0  00000+0 0    02
2 03066  53.2000 335.0000 0000001   0.0000 122.7273 15.08756705    07
Starlink Double 3066
1 03067U 00000ABC 22001.00000000  .00000000  00000-0  00000+0 0    03
2 03067  53.2000 335.0000 0000001   0.0000 139.0909 15.08756705    05
Starlink Double 3067
1 03068U 00000ABC 22001.00000000  .00000000  00000-0  00000+0 0    04
2 03068  53.2000 335.0000 0000001   0.0000 155.4545 15.08756705    04
Starlink Double 3068
1 03069U 00000ABC 22001.00000000  .00000000  00000-0  00000+0 0    05
2 03069  53.2000 335.0000 0000001   0.0000 171.8182 15.08756705    04
Starlink Double 3069
1 03070U 00000ABC 22001.00000000  .00000000  00000-0  00000+0 0    07
2 03070  53.2000 335.0000 0000001   0.0000 188.1818 15.08756705    03
Starlink Double 3070
1 03071U 00000ABC 22001.00000000  .00000000  00000-0  00000+0 0    08
2 03071  53.2000 335.0000 0000001   0.0000 204.5455 15.08756705    04
Starlink Double 3071
1 03072U 00000ABC 22001.00000000  .00000000  00000-0  00000+0 0    09
2 03072  53.2000 335.0000 0000001   0.0000 220.9091 15.08756705    03
Starlink Double 3072
1 03073U 00000ABC 22001.00000000  .00000000  00000-0  00000+0 0    00
2 03073  53.2000 335.0000 0000001   0.0000 237.2727 15.08756705    01
Starlink Double 3073
1 03074U 00000ABC 22001.00000000  .00000000  00000-0  00000+0 0    01
2 03074  53.2000 335.0000 0000001   0.0000 253.6364 15.08756705    01
Starlink Double 3074
1 03075U 00000ABC 22001.00000000  .00000000  00000-0  00000+0 0    02
2 03075  53.2000 335.0000 0000001   0.0000 270.0000 15.08756705    02
Starlink Double 3075
1 03076U 00000ABC 22001.00000000  .00000000  00000-0  00000+0 0    03
2 03076  53.2000 335.0000 0000001   0.0000 286.3636 15.08756705    08
Starlink Double 3076
1 03077U 00000ABC 22001.00000000  .00000000  00000-0  00000+0 0    04
2 03077  53.2000 335.0000 0000001   0.0000 302.7273 15.08756705    09
Starlink Double 3077
1 03078U 00000ABC 22001.00000000  .00000000  00000-0  00000+0 0    05
2 03078  53.2000 335.0000 0000001   0.0000 319.0909 15.08756705    07
Starlink Double 3078
1 03079U 00000ABC 22001.00000000  .00000000  00000-0  00000+0 0    06
2 03079  53.2000 335.0000 0000001   0.0000 335.4545 15.08756705    06
Starlink Double 3079
1 03080U 00000ABC 22001.00000000  .00000000  00000-0  00000+0 0    08
2 03080  53.2000 335.0000 0000001   0.0000 351.8182 15.08756705    07
Starlink Double 3080
1 03081U 00000ABC 22001.00000000  .00000000  00000-0  00000+0 0    09
2 03081  53.2000 340.0000 0000001   0.0000   0.0000 15.08756705    06
Starlink Double 3081
1 03082U 00000ABC 22001.00000000  .00000000  00000-0  00000+0 0    00
2 03082  53.2000 340.0000 0000001   0.0000  16.3636 15.08756705    02
Starlink Double 3082
1 03083U 00000ABC 22001.00000000  .00000000  00000-0  00000+0 0    01
2 03083  53.2000 340.0000 0000001   0.0000  32.7273 15.08756705    02
Starlink Double 3083
1 03084U 00000ABC 22001.00000000  .00000000  00000-0  00000+0 0    02
2 03084  53.2000 340.0000 0000001   0.0000  49.0909 15.08756705    00
Starlink Double 3084
1 03085U 00000ABC 22001.00000000  .00000000  00000-0  00000+0 0    03
2 03085  53.2000 340.0000 0000001   0.0000  65.4545 15.08756705    09
Starlink Double 3085
1 03086U 00000ABC 22001.00000000  .00000000  00000-0  00000+0 0    04
2 03086  53.2000 340.0000 0000001   0.0000  81.8182 15.08756705    09
Starlink Double 3086
1 03087U 00000ABC 22001.00000000  .00000000  00000-0  00000+0 0    05
2 03087  53.2000 340.0000 0000001   0.0000  98.1818 15.08756705    07
Starlink Double 3087
1 03088U 00000ABC 22001.00000000  .00000000  00000-0  00000+0 0    06
2 03088  53.2000 340.0000 0000001   0.0000 114.5455 15.08756705    08
Starlink Double 3088
1 03089U 00000ABC 22001.00000000  .00000000  00000-0  00000+0 0    07
2 03089  53.2000 340.0000 0000001   0.0000 130.9091 15.08756705    07
Starlink Double 3089
1 03090U 00000ABC 22001.00000000  .00000000  00000-0  00000+0 0    09
2 03090  53.2000 340.0000 0000001   0.0000 147.2727 15.08756705    06
Starlink Double 3090
1 03091U 00000ABC 22001.00000000  .00000000  00000-0  00000+0 0    00
2 03091  53.2000 340.0000 0000001   0.0000 163.6364 15.08756705    06
Starlink Double 3091
1 03092U 00000ABC 22001.00000000  .00000000  00000-0  00000+0 0    01
2 03092  53.2000 340.0000 0000001   0.0000 180.0000 15.08756705    07
Starlink Double 3092
1 03093U 00000ABC 22001.00000000  .00000000  00000-0  00000+0 0    02
2 03093  53.2000 340.0000 0000001   0.0000 196.3636 15.08756705    03
Starlink Double 3093
1 03094U 00000ABC 22001.00000000  .00000000  00000-0  00000+0 0    03
2 03094  53.2000 340.0000 0000001   0.0000 212.7273 15.08756705    04
Starlink Double 3094
1 03095U 00000ABC 22001.00000000  .00000000  00000-0  00000+0 0    04
2 03095  53.2000 340.0000 0000001   0.0000 229.0909 15.08756705    02
Starlink Double 3095
1 03096U 00000ABC 22001.00000000  .00000000  00000-0  00000+0 0    05
2 03096  53.2000 340.0000 0000001   0.0000 245.4545 15.08756705    01
Starlink Double 3096
1 03097U 00000ABC 22001.00000000  .00000000  00000-0  00000+0 0    06
2 03097  53.2000 340.0000 0000001   0.0000 261.8182 15.08756705    01
Starlink Double 3097
1 03098U 00000ABC 22001.00000000  .00000000  00000-0  00000+0 0    07
2 03098  53.2000 340.0000 0000001   0.0000 278.1818 15.08756705    09
Starlink Double 3098
1 03099U 00000ABC 22001.00000000  .00000000  00000-0  00000+0 0    08
2 03099  53.2000 340.0000 0000001   0.0000 294.5455 15.08756705    09
Starlink Double 3099
1 03100U 00000ABC 22001.00000000  .00000000  00000-0  00000+0 0    01
2 03100  53.2000 340.0000 0000001   0.0000 310.9091 15.08756705    01
